#aV2008  7 11  0  0   .00000000      96 DD+AD WGS84 FIT  NGA
## 1487 432000.00000000   900.00000000 54658  .0000000000000
+   31     2  3  4  5  6  7  8  9 10 11 12 13 14 15 16 17 18
+         19 20 21 22 23 24 25 26 27 28 29 30 31 32  0  0  0
+          0  0  0  0  0  0  0  0  0  0  0  0  0  0  0  0  0
+          0  0  0  0  0  0  0  0  0  0  0  0  0  0  0  0  0
+          0  0  0  0  0  0  0  0  0  0  0  0  0  0  0  0  0
++         0  0  0  0  0  0  0  0  0  0  0  0  0  0  0  0  0
++         0  0  0  0  0  0  0  0  0  0  0  0  0  0  0  0  0
++         0  0  0  0  0  0  0  0  0  0  0  0  0  0  0  0  0
++         0  0  0  0  0  0  0  0  0  0  0  0  0  0  0  0  0
++         0  0  0  0  0  0  0  0  0  0  0  0  0  0  0  0  0
%c cc cc ccc ccc cccc cccc cccc cccc ccccc ccccc ccccc ccccc
%c cc cc ccc ccc cccc cccc cccc cccc ccccc ccccc ccccc ccccc
%f  0.0000000  0.000000000  0.00000000000  0.000000000000000
%f  0.0000000  0.000000000  0.00000000000  0.000000000000000
%i    0    0    0    0      0      0      0      0         0
%i    0    0    0    0      0      0      0      0         0
/*      NGA, ST. LOUIS,MO.                                  
/*   EPHEMERIS COMPUTED FROM  3 DAYS OF DATA                
/* CCCCCCCCCCCCCCCCCCCCCCCCCCCCCCCCCCCCCCCCCCCCCCCCCCCCCCCCC
/* CCCCCCCCCCCCCCCCCCCCCCCCCCCCCCCCCCCCCCCCCCCCCCCCCCCCCCCCC
*  2008  7 11 14 15   .00000000                                                 
P  2  13343.925281  15217.711563 -17528.165349    202.607786                    
V  2   -848.338052  21938.711724  18196.604694      -.024037                    
P  3 -24425.892288 -10881.106515  -1172.090375    254.136912                    
V  3   2442.097505  -2890.569824 -30684.972019       .052187                    
P  4   7721.536849  23226.262799  -9938.760374   -112.729869                    
V  4  -3013.583808  12701.877983  27980.481918      -.096940                    
P  5  21432.622535 -15521.128750    709.407045   -360.157672                    
V  5   1123.265264   3542.814730  31439.498599       .194907                    
P  6 -21852.176089 -14320.041054  -4537.357710    159.677246                    
V  6   7012.790548   -651.731602 -30429.075961       .040096                    
P  7  -8012.647898  22012.490105 -12471.501987     -5.976836                    
V  7  -2786.699091 -15738.120579 -26127.335197       .057834                    
P  8  -1095.413545  26265.129813   -723.377314   -161.325215                    
V  8  -2460.986456   -885.333503 -32570.364038      -.015624                    
P  9  13686.962948  -7689.053182  20762.384435      4.788394                    
V  9   2662.897031  27738.779862   8408.927090       .017798                    
P 10  19024.740487   3721.145587 -18435.811444     -2.807173                    
V 10 -19220.184425  12705.387236 -17079.044252      -.002113                    
P 11 -13883.427529  10769.593332  19692.889277     23.527934                    
V 11  -7282.725337 -24741.193034   8666.136642      -.006558                    
P 12  23775.504751 -10724.936321   4804.944357   -357.221749                    
V 12  -3697.379612   5458.812706  31120.731958       .007136                    
P 13  -8207.346241  11986.256919 -22355.371924    263.386043                    
V 13 -23969.405411 -14465.758295   1061.259208       .014914                    
P 14  -9756.321063 -18328.525828  16726.156173   -245.401372                    
V 14  18724.925917   9455.013704  21306.950919       .044031                    
P 15  24293.061364   5176.925754   9442.935026   -141.022722                    
V 15   9393.187728   7861.040812 -28525.115615      -.063035                    
P 16 -14631.127155  -7930.692760 -20678.092396    117.466598                    
V 16  22269.481673 -14095.490698 -10114.949443      -.016925                    
P 17  10340.303818  18587.956916  16053.688982     38.606126                    
V 17 -18592.772770  -8206.694677  21376.001956      -.000209                    
P 18  13839.832528 -18558.834448  12868.237166   -157.624487                    
V 18  15475.946954  -5593.722750 -25442.431395       .043304                    
P 19 -23711.935704  -6107.257347  10618.027525     33.376576                    
V 19  -9970.178889  -9119.095268 -27539.417721       .005542                    
P 20 -23277.942633  12325.693198   3125.787540    110.163310                    
V 20   1691.980813  -4982.192562  31136.075917      -.008508                    
P 21   5176.479212 -24631.114197  -7228.678235     58.380900                    
V 21   4002.162014   9610.628005 -29700.143284      -.012700                    
P 22    462.936143 -17173.291133  20397.866527    211.523274                    
V 22  22871.502773 -11605.400957 -10428.836779       .000571                    
P 23 -18877.813239   4087.708997 -18412.377596    363.813820                    
V 23 -19756.080808 -12066.114664  17390.304210       .018482                    
P 24  12887.889258 -15019.005046 -17676.634063    108.645667                    
V 24   1191.289989  22727.936514 -17999.205175       .028711                    
P 25 -10041.369362  17023.613562 -17471.984888   -186.967708                    
V 25  -4426.789140 -22438.390686 -18760.139702      -.104182                    
P 26  24070.143916  10360.385992   5332.500634    290.480414                    
V 26   5553.728830   4918.042107 -31168.135538       .068931                    
P 27  -4618.918301  23868.968248  -9861.563979    202.020557                    
V 27  -3741.147924 -13255.956743 -28538.412606       .027133                    
P 28  -1871.195874  17371.732931  20294.377286    -20.924344                    
V 28 -22185.508307  11586.562220 -12525.691260      -.003131                    
P 29  11662.449540 -10547.078531 -21281.846080    -41.714614                    
V 29  23509.200192  13915.513079   5984.067206       .005511                    
P 30  17414.688394 -18533.934681  -7826.679988     85.405133                    
V 30   9555.596134  -2859.488325  29432.508395       .018343                    
P 31  -8310.130474 -22561.701508 -10963.617333    -25.002295                    
V 31   1878.477945 -14323.294763  27653.326156       .004630                    
P 32 -24148.020880   4218.262005  10435.745082    306.111943                    
V 32  10256.686076  -7770.451303  28212.263126       .031113                    
EOF
